SL-3 R/B                
1 13403U 82079B   17345.90922171  .00001052  00000-0  68286-4 0  9990
2 13403  81.1712  65.7688 0034445  52.8405 307.5956 15.06741730923268
